{"fetched_at":"2026-07-18T06:28:27.138Z","source":"https://celestrak.org/NORAD/elements/gp.php?NAME=SENTINEL&FORMAT=JSON","constellation":"sentinel-5p","records":[{"OBJECT_NAME":"SENTINEL-5P","OBJECT_ID":"2017-064A","EPOCH":"2026-07-17T20:43:03.767520","CLASSIFICATION_TYPE":"U","MEAN_MOTION":14.19523493,"ECCENTRICITY":0.00011611,"INCLINATION":98.7929,"RA_OF_ASC_NODE":140.7776,"ARG_OF_PERICENTER":94.1328,"MEAN_ANOMALY":265.9981,"EPHEMERIS_TYPE":0,"NORAD_CAT_ID":42969,"ELEMENT_SET_NO":999,"REV_AT_EPOCH":45391,"BSTAR":0.00002540126,"MEAN_MOTION_DOT":9e-8,"MEAN_MOTION_DDOT":0}]}
