SENTINEL-5P             
1 42969U 17064A   26198.86323805  .00000009  00000+0  25401-4 0  9993
2 42969  98.7929 140.7776 0001161  94.1328 265.9981 14.19523493453917
